1 27424U 02022A   12015.68757789  .00000483  00000-0  11735-3 0  1831
2 27424 098.2201 318.3224 0001312 087.0240 273.1091 14.57115621516013